{
  "type": "FeatureCollection",
  "features": [
    {
      "type": "Feature",
      "properties": {
        "norad_id": 34121,
        "name": "COSMOS 2251 DEB",
        "group": "cosmos-2251-debris",
        "lat": 28.120264672216617,
        "lon": -87.51058872789837,
        "alt_km": 1080.6504354401068,
        "timestamp": "2025-12-10T07:43:55.172995+00:00",
        "meta_object_name": "COSMOS 2251 DEB",
        "meta_object_id": "1993-036KS",
        "meta_epoch": "2025-12-09T19:44:03.277824",
        "meta_mean_motion": 13.91914062,
        "meta_eccentricity": 0.0240098,
        "meta_inclination": 73.993,
        "meta_ra_of_asc_node": 102.1699,
        "meta_arg_of_pericenter": 308.2419,
        "meta_mean_anomaly": 219.3925,
        "meta_ephemeris_type": 0,
        "meta_classification_type": "U",
        "meta_norad_cat_id": 34121,
        "meta_element_set_no": 999,
        "meta_rev_at_epoch": 85084,
        "meta_bstar": 0.0018418,
        "meta_mean_motion_dot": 2.946e-05,
        "meta_mean_motion_ddot": 0,
        "tle_line1": "1 34121U 93036KS  25343.82226016  .00002946  00000+0  18418-2 0  9990",
        "tle_line2": "2 34121  73.9930 102.1699 0240098 308.2419 219.3925 13.91914062850844"
      },
      "geometry": {
        "type": "Point",
        "coordinates": [
          -87.51058872789837,
          28.120264672216617
        ]
      }
    },
    {
      "type": "Feature",
      "properties": {
        "norad_id": 34122,
        "name": "COSMOS 2251 DEB",
        "group": "cosmos-2251-debris",
        "lat": 49.947541970380364,
        "lon": -76.62255777884829,
        "alt_km": 688.4072828797489,
        "timestamp": "2025-12-10T07:43:55.173005+00:00",
        "meta_object_name": "COSMOS 2251 DEB",
        "meta_object_id": "1993-036KT",
        "meta_epoch": "2025-12-09T16:28:21.542016",
        "meta_mean_motion": 14.64984782,
        "meta_eccentricity": 0.0084154,
        "meta_inclination": 74.036,
        "meta_ra_of_asc_node": 124.5081,
        "meta_arg_of_pericenter": 22.2261,
        "meta_mean_anomaly": 352.1783,
        "meta_ephemeris_type": 0,
        "meta_classification_type": "U",
        "meta_norad_cat_id": 34122,
        "meta_element_set_no": 999,
        "meta_rev_at_epoch": 88640,
        "meta_bstar": 0.0017621,
        "meta_mean_motion_dot": 9.926e-05,
        "meta_mean_motion_ddot": 0,
        "tle_line1": "1 34122U 93036KT  25343.68636044  .00009926  00000+0  17621-2 0  9991",
        "tle_line2": "2 34122  74.0360 124.5081 0084154  22.2261 352.1783 14.64984782886400"
      },
      "geometry": {
        "type": "Point",
        "coordinates": [
          -76.62255777884829,
          49.947541970380364
        ]
      }
    },
    {
      "type": "Feature",
      "properties": {
        "norad_id": 34127,
        "name": "COSMOS 2251 DEB",
        "group": "cosmos-2251-debris",
        "lat": -29.109638064551547,
        "lon": 39.1495276691524,
        "alt_km": 778.3253065632834,
        "timestamp": "2025-12-10T07:43:55.173015+00:00",
        "meta_object_name": "COSMOS 2251 DEB",
        "meta_object_id": "1993-036KY",
        "meta_epoch": "2025-12-09T07:01:03.270144",
        "meta_mean_motion": 14.31489574,
        "meta_eccentricity": 0.0114851,
        "meta_inclination": 74.1789,
        "meta_ra_of_asc_node": 50.0937,
        "meta_arg_of_pericenter": 250.9536,
        "meta_mean_anomaly": 172.8307,
        "meta_ephemeris_type": 0,
        "meta_classification_type": "U",
        "meta_norad_cat_id": 34127,
        "meta_element_set_no": 999,
        "meta_rev_at_epoch": 86722,
        "meta_bstar": 0.0028226,
        "meta_mean_motion_dot": 8.044e-05,
        "meta_mean_motion_ddot": 0,
        "tle_line1": "1 34127U 93036KY  25343.29239896  .00008044  00000+0  28226-2 0  9990",
        "tle_line2": "2 34127  74.1789  50.0937 0114851 250.9536 172.8307 14.31489574867228"
      },
      "geometry": {
        "type": "Point",
        "coordinates": [
          39.1495276691524,
          -29.109638064551547
        ]
      }
    },
    {
      "type": "Feature",
      "properties": {
        "norad_id": 34128,
        "name": "COSMOS 2251 DEB",
        "group": "cosmos-2251-debris",
        "lat": -65.03704518722644,
        "lon": -96.3959420301686,
        "alt_km": 581.1518499367958,
        "timestamp": "2025-12-10T07:43:55.173025+00:00",
        "meta_object_name": "COSMOS 2251 DEB",
        "meta_object_id": "1993-036KZ",
        "meta_epoch": "2025-12-09T15:13:39.654336",
        "meta_mean_motion": 15.00916716,
        "meta_eccentricity": 0.0026249,
        "meta_inclination": 74.0001,
        "meta_ra_of_asc_node": 303.0588,
        "meta_arg_of_pericenter": 55.8022,
        "meta_mean_anomaly": 119.6825,
        "meta_ephemeris_type": 0,
        "meta_classification_type": "U",
        "meta_norad_cat_id": 34128,
        "meta_element_set_no": 999,
        "meta_rev_at_epoch": 89120,
        "meta_bstar": 0.0026284,
        "meta_mean_motion_dot": 0.00033855,
        "meta_mean_motion_ddot": 0,
        "tle_line1": "1 34128U 93036KZ  25343.63448674  .00033855  00000+0  26284-2 0  9995",
        "tle_line2": "2 34128  74.0001 303.0588 0026249  55.8022 119.6825 15.00916716891202"
      },
      "geometry": {
        "type": "Point",
        "coordinates": [
          -96.3959420301686,
          -65.03704518722644
        ]
      }
    },
    {
      "type": "Feature",
      "properties": {
        "norad_id": 34129,
        "name": "COSMOS 2251 DEB",
        "group": "cosmos-2251-debris",
        "lat": 62.5979861680756,
        "lon": 17.776757528171043,
        "alt_km": 613.5557997997166,
        "timestamp": "2025-12-10T07:43:55.173035+00:00",
        "meta_object_name": "COSMOS 2251 DEB",
        "meta_object_id": "1993-036LA",
        "meta_epoch": "2025-12-09T10:16:37.675776",
        "meta_mean_motion": 14.75640899,
        "meta_eccentricity": 0.00328216,
        "meta_inclination": 74.0355,
        "meta_ra_of_asc_node": 346.0056,
        "meta_arg_of_pericenter": 68.618,
        "meta_mean_anomaly": 291.8491,
        "meta_ephemeris_type": 0,
        "meta_classification_type": "U",
        "meta_norad_cat_id": 34129,
        "meta_element_set_no": 999,
        "meta_rev_at_epoch": 61249,
        "meta_bstar": 0.0017943193,
        "meta_mean_motion_dot": 0.0001235,
        "meta_mean_motion_ddot": 0,
        "tle_line1": "1 34129U 93036LA  25343.42821384  .00012350  00000+0  17943-2 0  9995",
        "tle_line2": "2 34129  74.0355 346.0056 0032821  68.6180 291.8491 14.75640899612493"
      },
      "geometry": {
        "type": "Point",
        "coordinates": [
          17.776757528171043,
          62.5979861680756
        ]
      }
    },
    {
      "type": "Feature",
      "properties": {
        "norad_id": 34136,
        "name": "COSMOS 2251 DEB",
        "group": "cosmos-2251-debris",
        "lat": -4.163718111010025,
        "lon": -131.4036867677223,
        "alt_km": 573.6125152617778,
        "timestamp": "2025-12-10T07:43:55.173044+00:00",
        "meta_object_name": "COSMOS 2251 DEB",
        "meta_object_id": "1993-036LH",
        "meta_epoch": "2025-12-09T15:25:25.843872",
        "meta_mean_motion": 14.80045861,
        "meta_eccentricity": 0.0086045,
        "meta_inclination": 74.0208,
        "meta_ra_of_asc_node": 48.7404,
        "meta_arg_of_pericenter": 172.5136,
        "meta_mean_anomaly": 352.4586,
        "meta_ephemeris_type": 0,
        "meta_classification_type": "U",
        "meta_norad_cat_id": 34136,
        "meta_element_set_no": 999,
        "meta_rev_at_epoch": 89964,
        "meta_bstar": 0.00078271,
        "meta_mean_motion_dot": 6.283e-05,
        "meta_mean_motion_ddot": 0,
        "tle_line1": "1 34136U 93036LH  25343.64266023  .00006283  00000+0  78271-3 0  9990",
        "tle_line2": "2 34136  74.0208  48.7404 0086045 172.5136 352.4586 14.80045861899641"
      },
      "geometry": {
        "type": "Point",
        "coordinates": [
          -131.4036867677223,
          -4.163718111010025
        ]
      }
    },
    {
      "type": "Feature",
      "properties": {
        "norad_id": 34139,
        "name": "COSMOS 2251 DEB",
        "group": "cosmos-2251-debris",
        "lat": 73.94684040458135,
        "lon": -16.984541247089016,
        "alt_km": 703.1486205465008,
        "timestamp": "2025-12-10T07:43:55.173054+00:00",
        "meta_object_name": "COSMOS 2251 DEB",
        "meta_object_id": "1993-036LL",
        "meta_epoch": "2025-12-09T18:18:05.735232",
        "meta_mean_motion": 14.58995699,
        "meta_eccentricity": 0.0042553,
        "meta_inclination": 74.031,
        "meta_ra_of_asc_node": 259.7373,
        "meta_arg_of_pericenter": 331.3133,
        "meta_mean_anomaly": 58.6584,
        "meta_ephemeris_type": 0,
        "meta_classification_type": "U",
        "meta_norad_cat_id": 34139,
        "meta_element_set_no": 999,
        "meta_rev_at_epoch": 88106,
        "meta_bstar": 0.0023045,
        "meta_mean_motion_dot": 0.00010944,
        "meta_mean_motion_ddot": 0,
        "tle_line1": "1 34139U 93036LL  25343.76256638  .00010944  00000+0  23045-2 0  9994",
        "tle_line2": "2 34139  74.0310 259.7373 0042553 331.3133  58.6584 14.58995699881063"
      },
      "geometry": {
        "type": "Point",
        "coordinates": [
          -16.984541247089016,
          73.94684040458135
        ]
      }
    }
  ]
}